COSMOS 2500 (755)       
1 40001U 14032A   17345.64033367 -.00000077  00000-0  00000-0 0  9992
2 40001  65.3204  58.5875 0007143 205.5984  84.7570  2.13102712 27181
